[{"OBJECT_NAME":"STARLINK-33865","OBJECT_ID":"2025-119Q","EPOCH":"2026-03-09T01:00:07.897248","MEAN_MOTION":15.27570218,"ECCENTRICITY":0.00014478,"INCLINATION":43.0008,"RA_OF_ASC_NODE":310.4136,"ARG_OF_PERICENTER":253.2212,"MEAN_ANOMALY":106.8481,"EPHEMERIS_TYPE":0,"CLASSIFICATION_TYPE":"U","NORAD_CAT_ID":64247,"ELEMENT_SET_NO":999,"REV_AT_EPOCH":4404,"BSTAR":0.00089454665,"MEAN_MOTION_DOT":0.00024428,"MEAN_MOTION_DDOT":0},{"OBJECT_NAME":"UNKNOWN","OBJECT_ID":"","EPOCH":"2026-02-22T00:08:45.737952","MEAN_MOTION":14.15044008,"ECCENTRICITY":0.0509514,"INCLINATION":65.771,"RA_OF_ASC_NODE":261.596,"ARG_OF_PERICENTER":328.3661,"MEAN_ANOMALY":28.7697,"EPHEMERIS_TYPE":0,"CLASSIFICATION_TYPE":"U","NORAD_CAT_ID":87456,"ELEMENT_SET_NO":999,"REV_AT_EPOCH":62157,"BSTAR":0.00055206,"MEAN_MOTION_DOT":3.756e-5,"MEAN_MOTION_DDOT":0}]
